RAVAN                   
1 41849U 16067B   18336.22081225  .00000921  00000-0  83160-4 0  9993
2 41849  97.9247  67.4626 0007403 334.5247  25.5608 14.98016021112281
CELTEE 1                
1 41850U 16067C   18336.21422871  .00000606  00000-0  58105-4 0  9991
2 41850  97.9217  66.5924 0007877 334.6976  25.3858 14.96910260112232
OPTICUBE 04             
1 41851U 16067D   18336.19733730  .00000485  00000-0  47732-4 0  9997
2 41851  97.9204  66.4390 0007961 334.3210  25.7615 14.96732172112225
AEROCUBE 8D             
1 41852U 16067E   18335.78375380  .00000201  00000-0  22987-4 0  9996
2 41852  97.9213  65.8505 0008931 333.6053  26.4712 14.96593968112147
AEROCUBE 8C             
1 41853U 16067F   18336.20310714  .00000792  00000-0  74898-4 0  9998
2 41853  97.9218  66.2262 0009095 335.0867  24.9913 14.96561453112206
PROMETHEUS 2-1          
1 41854U 16067G   18335.79392557  .00000662  00000-0  63240-4 0  9992
2 41854  97.9221  65.8687 0009425 334.4479  25.6274 14.96714332112143
PROMETHEUS 2-3          
1 41855U 16067H   18336.19779713  .00000845  00000-0  79291-4 0  9997
2 41855  97.9224  66.2863 0009527 333.7266  26.3470 14.96716179112201
ITF-2                   
1 41932U 98067KU  18335.96690075  .00183605  25009-4  37971-3 0  9994
2 41932  51.6236 185.9636 0005234 185.6501 174.4450 15.98784575107363
INS-1B                  
1 41954U 17008G   18335.83644104  .00001349  00000-0  59554-4 0  9998
2 41954  97.4272  38.2503 0010789 120.4343 239.7961 15.23441280 99521
BGUSAT                  
1 41999U 17008BD  18335.94983396  .00002267  00000-0  92868-4 0  9993
2 41999  97.4326  39.9637 0009569 133.9391 226.2638 15.25287634 98997
DIDO-2                  
1 42000U 17008BE  18335.89424479  .00000993  00000-0  44498-4 0  9993
2 42000  97.4288  38.8109 0009739 135.9731 224.2283 15.23528073 98930
PEASSS                  
1 42015U 17008BV  18335.91153429  .00001255  00000-0  54107-4 0  9996
2 42015  97.4289  39.4965 0007532 139.5948 220.5850 15.24400932 99465
AL-FARABI 1             
1 42016U 17008BW  18335.91902127  .00001607  00000-0  67437-4 0  9995
2 42016  97.4300  39.8390 0007409 139.3399 220.8393 15.24914050 99609
NAYIF-1 (EO-88)         
1 42017U 17008BX  18335.91046226  .00001618  00000-0  67839-4 0  9993
2 42017  97.4298  39.8389 0007375 139.4062 220.7727 15.24941889 99626
HAVELSAT                
1 42700U 98067LH  18336.02132483  .00083758  00000-0  34099-3 0  9996
2 42700  51.6262 209.0778 0005576 169.0457 191.0669 15.85434457 88504
CXBN-2                  
1 42704U 98067LM  18336.03159437  .00083336  00000-0  34786-3 0  9994
2 42704  51.6292 210.7094 0004355 147.9440 212.1830 15.84925052 88401
PHOENIX                 
1 42706U 98067LP  18335.89284572  .00037890  00000-0  22131-3 0  9993
2 42706  51.6289 216.5970 0003198 125.3837 234.7463 15.77990665 88305
X-CUBESAT               
1 42707U 98067LQ  18335.86329938  .00093464  00000-0  32547-3 0  9998
2 42707  51.6260 207.9133 0004650 159.4603 200.6590 15.88586141 88409
QBEE50-LTU-OC           
1 42708U 98067LR  18335.91936435  .00081437  00000-0  33655-3 0  9999
2 42708  51.6269 210.6693 0003975 158.8819 201.2349 15.85144569 88334
ALTAIR PATHFINDER       
1 42711U 98067LS  18336.13200374  .00022748  00000-0  19167-3 0  9996
2 42711  51.6339 230.3172 0004647 105.4824 254.6687 15.69720681 87803
SHARC                   
1 42712U 98067LT  18336.07919538  .00048846  00000-0  33514-3 0  9998
2 42712  51.6348 230.0219 0004302 123.6546 236.4864 15.74193001 88042
ZA-AEROSAT              
1 42713U 98067LU  18336.07701603  .00042017  00000-0  26244-3 0  9997
2 42713  51.6343 220.0966 0003805 119.2217 240.9163 15.76423136 87935
CSUNSAT 1               
1 42715U 98067LW  18336.04856468  .00044719  00000-0  25907-3 0  9992
2 42715  51.6328 218.4154 0004823 120.5835 239.5641 15.78088677 87958
SPACECUBE               
1 42717U 98067LY  18335.89849738  .00071154  00000-0  29839-3 0  9999
2 42717  51.6225 211.1904 0004998 165.5390 194.5757 15.84884730 87406
HOOPOE                  
1 42718U 98067LZ  18335.99710890  .00269386  41879-4  49332-3 0  9996
2 42718  51.6212 200.4431 0006142 193.5549 166.5297 16.00797309 87557
NJUST-1                 
1 42722U 98067MB  18336.11032449  .00024077  00000-0  16585-3 0  9990
2 42722  51.6358 223.0555 0006417 141.5648   5.5717 15.74463010 86961
UNSW-ECO                
1 42723U 98067MC  18336.03083989  .02413083  11986-4  77143-3 0  9994
2 42723  51.6308 196.2505 0006563 242.2536 117.7820 16.25464394 87291
LILACSAT-1              
1 42725U 98067ME  18336.16051218  .00046242  00000-0  23300-3 0  9994
2 42725  51.6356 215.2111 0005495 143.0438 300.1663 15.81148210 86988
NSIGHT-1                
1 42726U 98067MF  18336.14195698  .00010089  00000-0  10627-3 0  9992
2 42726  51.6381 238.7709 0005861 135.4891 224.6576 15.64947813 86671
SNUSAT-1                
1 42727U 98067MG  18335.91324080  .00054155  00000-0  27589-3 0  9993
2 42727  51.6306 216.6455 0006565 132.6067 227.5489 15.80831745 86903
I-INSPIRE II            
1 42731U 98067ML  18328.65367517  .20606057  12514-4  45736-3 0  9990
2 42731  51.6195 233.0809 0005495 228.6465 131.7518 16.46306360 85922
POLYITAN-2-SAU          
1 42732U 98067MM  18335.90178965  .00107998  00000-0  38284-3 0  9995
2 42732  51.6283 208.9978 0005693 141.0441 219.0975 15.88164677 86893
SNUSAT-1B               
1 42733U 98067MN  18335.88595750  .00059229  00000-0  27310-3 0  9999
2 42733  51.6278 214.2078 0006269 130.9165 229.2382 15.82946106 86826
BEEAGLESAT              
1 42736U 98067MR  18335.93724054  .00043384  00000-0  24252-3 0  9996
2 42736  51.6309 218.3619 0006529 145.3939 214.7488 15.78886372 86838
UCLSAT                  
1 42765U 17036A   18336.11666831  .00001383  00000-0  63079-4 0  9998
2 42765  97.3806  33.0988 0011086 200.0055 160.0748 15.22258650 80255
LITUANICASAT-2          
1 42768U 17036D   18336.14782201  .00002128  00000-0  95929-4 0  9991
2 42768  97.3829  32.6829 0015202 191.7183 168.3702 15.22022286 80103
AALTO-1                 
1 42775U 17036L   18335.87213668  .00000784  00000-0  38386-4 0  9994
2 42775  97.3796  32.0350 0013816 190.8692 169.2247 15.21014817 79989
URSA MAIOR              
1 42776U 17036M   18335.78283281  .00000899  00000-0  43417-4 0  9991
2 42776  97.3803  32.0372 0013633 191.2452 168.8482 15.21122914 79972
COMPASS 2               
1 42777U 17036N   18335.92570707  .00001725  00000-0  77865-4 0  9993
2 42777  97.3831  32.8745 0012442 192.6344 167.4582 15.22262680 80028
DIAMOND RED             
1 42783U 17036U   18335.70192268  .00001038  00000-0  48709-4 0  9990
2 42783  97.3807  32.4430 0011695 202.1980 157.8751 15.21798432 79989
PEGASUS                 
1 42784U 17036V   18335.91315357  .00001217  00000-0  56196-4 0  9998
2 42784  97.3809  32.7810 0011619 201.2487 158.8268 15.22043624 80023
DIAMOND GREEN           
1 42785U 17036W   18335.70070275  .00001052  00000-0  49338-4 0  9990
2 42785  97.3808  32.4598 0011578 202.6804 157.3922 15.21797924 79976
DIAMOND BLUE            
1 42786U 17036X   18335.89701757  .00001065  00000-0  49925-4 0  9993
2 42786  97.3808  32.6519 0011421 202.2318 157.8424 15.21800490 80084
NUDTSAT                 
1 42787U 17036Y   18335.95611350  .00001554  00000-0  69451-4 0  9999
2 42787  97.3842  33.2135 0009870 204.1354 155.9419 15.22791822 79899
SUCHAI                  
1 42788U 17036Z   18335.90307987  .00001425  00000-0  64664-4 0  9991
2 42788  97.3812  32.9492 0011223 200.6453 159.4331 15.22378264 80104
SKCUBE                  
1 42789U 17036AA  18335.90817751  .00001360  00000-0  61966-4 0  9997
2 42789  97.3809  32.9304 0011080 200.5173 159.5620 15.22311947 80020
VZLUSAT-1               
1 42790U 17036AB  18335.94372612  .00001801  00000-0  79929-4 0  9993
2 42790  97.3818  33.2037 0010717 199.9843 160.0976 15.22802648 80046
ROBUSTA-1B              
1 42792U 17036AD  18335.92583243  .00001361  00000-0  61736-4 0  9995
2 42792  97.3808  33.0465 0010630 201.0806 158.9994 15.22470326 80048
CICERO 6                
1 42793U 17036AE  18335.81189687  .00001026  00000-0  47636-4 0  9999
2 42793  97.3796  32.8569 0009760 202.4219 157.6593 15.22211676 80099
D-SAT                   
1 42794U 17036AF  18335.82940644  .00000368  00000-0  37101-4 0  9993
2 42794  97.5698  23.9536 0128339  84.3367 277.2471 14.90977885 78707
TOKI                    
1 42820U 98067MU  18335.92962425  .00043871  00000-0  26008-3 0  9997
2 42820  51.6317 222.0928 0003948 122.3195 237.8188 15.77584625 80266
MAZAALAI (NUMSAT-1)     
1 42822U 98067MW  18336.07019765  .00043556  00000-0  26531-3 0  9997
2 42822  51.6343 222.2995 0004356 120.5709 239.5721 15.76973726 80230
BRAC ONNESHA            
1 42823U 98067MX  18335.92077681  .00043230  00000-0  26008-3 0  9990
2 42823  51.6308 222.8187 0005878 118.2245 241.9350 15.77247723 80237
NIGERIAEDUSAT-1         
1 42824U 98067MY  18336.10509776  .00045624  00000-0  27987-3 0  9993
2 42824  51.6352 222.5861 0006140 124.2461 235.9122 15.76781318 80224
CORVUS BC2              
1 42846U 17042X   18335.95423742  .00000110  00000-0  16208-4 0  9997
2 42846  97.5829 232.6196 0009764   6.7272 353.4077 14.91891198 75388
CORVUS BC1              
1 42847U 17042Y   18335.71957453  .00000267  00000-0  31630-4 0  9992
2 42847  97.5831 232.4684 0009431   7.3950 352.7407 14.91990568 75349
SILU-1 (SILKROAD 1)     
1 42903U 17021F   18336.06801554  .00038511  00000-0  17901-3 0  9998
2 42903  42.7741  24.3599 0014093  52.5583  28.3665 15.82520419 76428
MIRATA                  
1 43015U 17073C   18336.08573386  .00001368  00000-0  11155-3 0  9996
2 43015  97.7127 260.1404 0258316  84.7975 278.2657 14.78511871 55943
MAKERSAT 0              
1 43016U 17073D   18336.21103343  .00000898  00000-0  74692-4 0  9997
2 43016  97.7158 260.4299 0260057  84.5342 278.5472 14.78404906 55953
